CCSDS_OMM_VERS = 2.0
CREATION_DATE  = 
ORIGINATOR     = 

OBJECT_NAME    = SL-3 R/B
OBJECT_ID      = 1982-079B
CENTER_NAME    = EARTH
REF_FRAME      = TEME
TIME_SYSTEM    = UTC
MEAN_ELEMENT_THEORY = SGP/SGP4

EPOCH          = 2026-01-19T15:14:01.304448
MEAN_MOTION    = 15.24073947
ECCENTRICITY   = .00249831
INCLINATION    = 81.1450
RA_OF_ASC_NODE = 250.9779
ARG_OF_PERICENTER = 334.7567
MEAN_ANOMALY   = 25.2442

EPHEMERIS_TYPE = 0
CLASSIFICATION_TYPE = U
NORAD_CAT_ID   = 13403
ELEMENT_SET_NO = 999
REV_AT_EPOCH   = 37022
BSTAR          = .21083682E-3
MEAN_MOTION_DOT = .5187E-4
MEAN_MOTION_DDOT = 0

CCSDS_OMM_VERS = 2.0
CREATION_DATE  = 
ORIGINATOR     = 

OBJECT_NAME    = SL-14 R/B
OBJECT_ID      = 1982-092B
CENTER_NAME    = EARTH
REF_FRAME      = TEME
TIME_SYSTEM    = UTC
MEAN_ELEMENT_THEORY = SGP/SGP4

EPOCH          = 2026-01-19T12:11:58.792704
MEAN_MOTION    = 14.86598568
ECCENTRICITY   = .00218111
INCLINATION    = 82.5675
RA_OF_ASC_NODE = 187.3874
ARG_OF_PERICENTER = 103.4960
MEAN_ANOMALY   = 314.2161

EPHEMERIS_TYPE = 0
CLASSIFICATION_TYPE = U
NORAD_CAT_ID   = 13553
ELEMENT_SET_NO = 999
REV_AT_EPOCH   = 32162
BSTAR          = .59479701E-4
MEAN_MOTION_DOT = .554E-5
MEAN_MOTION_DDOT = 0

CCSDS_OMM_VERS = 2.0
CREATION_DATE  = 
ORIGINATOR     = 

OBJECT_NAME    = SL-3 R/B
OBJECT_ID      = 1983-010B
CENTER_NAME    = EARTH
REF_FRAME      = TEME
TIME_SYSTEM    = UTC
MEAN_ELEMENT_THEORY = SGP/SGP4

EPOCH          = 2026-01-19T13:17:40.492896
MEAN_MOTION    = 15.44579912
ECCENTRICITY   = .00164808
INCLINATION    = 81.1022
RA_OF_ASC_NODE = 62.4190
ARG_OF_PERICENTER = 213.8792
MEAN_ANOMALY   = 146.1400

EPHEMERIS_TYPE = 0
CLASSIFICATION_TYPE = U
NORAD_CAT_ID   = 13819
ELEMENT_SET_NO = 999
REV_AT_EPOCH   = 35035
BSTAR          = .24860742E-3
MEAN_MOTION_DOT = .11644E-3
MEAN_MOTION_DDOT = 0

CCSDS_OMM_VERS = 2.0
CREATION_DATE  = 
ORIGINATOR     = 

OBJECT_NAME    = SL-3 R/B
OBJECT_ID      = 1983-075B
CENTER_NAME    = EARTH
REF_FRAME      = TEME
TIME_SYSTEM    = UTC
MEAN_ELEMENT_THEORY = SGP/SGP4

EPOCH          = 2026-01-19T14:57:13.813056
MEAN_MOTION    = 15.37016339
ECCENTRICITY   = .00239659
INCLINATION    = 97.6113
RA_OF_ASC_NODE = 22.4055
ARG_OF_PERICENTER = 48.7990
MEAN_ANOMALY   = 311.5315

EPHEMERIS_TYPE = 0
CLASSIFICATION_TYPE = U
NORAD_CAT_ID   = 14208
ELEMENT_SET_NO = 999
REV_AT_EPOCH   = 32261
BSTAR          = .30180914E-3
MEAN_MOTION_DOT = .1095E-3
MEAN_MOTION_DDOT = 0

CCSDS_OMM_VERS = 2.0
CREATION_DATE  = 
ORIGINATOR     = 

OBJECT_NAME    = COSMOS 1536
OBJECT_ID      = 1984-013A
CENTER_NAME    = EARTH
REF_FRAME      = TEME
TIME_SYSTEM    = UTC
MEAN_ELEMENT_THEORY = SGP/SGP4

EPOCH          = 2026-01-19T11:00:48.533184
MEAN_MOTION    = 15.23057475
ECCENTRICITY   = .00157698
INCLINATION    = 82.5469
RA_OF_ASC_NODE = 156.7436
ARG_OF_PERICENTER = 95.8792
MEAN_ANOMALY   = 264.4243

EPHEMERIS_TYPE = 0
CLASSIFICATION_TYPE = U
NORAD_CAT_ID   = 14699
ELEMENT_SET_NO = 999
REV_AT_EPOCH   = 26512
BSTAR          = .31552084E-3
MEAN_MOTION_DOT = .7488E-4
MEAN_MOTION_DDOT = 0

CCSDS_OMM_VERS = 2.0
CREATION_DATE  = 
ORIGINATOR     = 

OBJECT_NAME    = SL-14 R/B
OBJECT_ID      = 1984-027B
CENTER_NAME    = EARTH
REF_FRAME      = TEME
TIME_SYSTEM    = UTC
MEAN_ELEMENT_THEORY = SGP/SGP4

EPOCH          = 2026-01-19T11:14:48.620256
MEAN_MOTION    = 14.85918931
ECCENTRICITY   = .00190504
INCLINATION    = 82.5429
RA_OF_ASC_NODE = 291.1793
ARG_OF_PERICENTER = 132.9800
MEAN_ANOMALY   = 227.3018

EPHEMERIS_TYPE = 0
CLASSIFICATION_TYPE = U
NORAD_CAT_ID   = 14820
ELEMENT_SET_NO = 999
REV_AT_EPOCH   = 24032
BSTAR          = .52267538E-4
MEAN_MOTION_DOT = .482E-5
MEAN_MOTION_DDOT = 0

CCSDS_OMM_VERS = 2.0
CREATION_DATE  = 
ORIGINATOR     = 

OBJECT_NAME    = SL-8 R/B
OBJECT_ID      = 1985-006B
CENTER_NAME    = EARTH
REF_FRAME      = TEME
TIME_SYSTEM    = UTC
MEAN_ELEMENT_THEORY = SGP/SGP4

EPOCH          = 2026-01-19T09:45:12.732768
MEAN_MOTION    = 14.37748897
ECCENTRICITY   = .00197945
INCLINATION    = 74.0468
RA_OF_ASC_NODE = 351.8288
ARG_OF_PERICENTER = 277.9991
MEAN_ANOMALY   = 201.2694

EPHEMERIS_TYPE = 0
CLASSIFICATION_TYPE = U
NORAD_CAT_ID   = 15483
ELEMENT_SET_NO = 999
REV_AT_EPOCH   = 14694
BSTAR          = .11325445E-3
MEAN_MOTION_DOT = .315E-5
MEAN_MOTION_DDOT = 0

CCSDS_OMM_VERS = 2.0
CREATION_DATE  = 
ORIGINATOR     = 

OBJECT_NAME    = SL-12 R/B(2)
OBJECT_ID      = 1985-042D
CENTER_NAME    = EARTH
REF_FRAME      = TEME
TIME_SYSTEM    = UTC
MEAN_ELEMENT_THEORY = SGP/SGP4

EPOCH          = 2026-01-19T15:58:49.117728
MEAN_MOTION    = 14.21963511
ECCENTRICITY   = .00361629
INCLINATION    = 71.1066
RA_OF_ASC_NODE = 191.2973
ARG_OF_PERICENTER = 205.3475
MEAN_ANOMALY   = 230.6952

EPHEMERIS_TYPE = 0
CLASSIFICATION_TYPE = U
NORAD_CAT_ID   = 15772
ELEMENT_SET_NO = 999
REV_AT_EPOCH   = 10742
BSTAR          = .82788551E-4
MEAN_MOTION_DOT = .136E-5
MEAN_MOTION_DDOT = 0

CCSDS_OMM_VERS = 2.0
CREATION_DATE  = 
ORIGINATOR     = 

OBJECT_NAME    = SL-14 R/B
OBJECT_ID      = 1985-069B
CENTER_NAME    = EARTH
REF_FRAME      = TEME
TIME_SYSTEM    = UTC
MEAN_ELEMENT_THEORY = SGP/SGP4

EPOCH          = 2026-01-19T14:28:17.092704
MEAN_MOTION    = 14.86368630
ECCENTRICITY   = .00187226
INCLINATION    = 82.5249
RA_OF_ASC_NODE = 71.1037
ARG_OF_PERICENTER = 359.9275
MEAN_ANOMALY   = 0.1935

EPHEMERIS_TYPE = 0
CLASSIFICATION_TYPE = U
NORAD_CAT_ID   = 15945
ELEMENT_SET_NO = 999
REV_AT_EPOCH   = 16554
BSTAR          = .47704141E-4
MEAN_MOTION_DOT = .446E-5
MEAN_MOTION_DDOT = 0

CCSDS_OMM_VERS = 2.0
CREATION_DATE  = 
ORIGINATOR     = 

OBJECT_NAME    = SL-16 R/B
OBJECT_ID      = 1985-097B
CENTER_NAME    = EARTH
REF_FRAME      = TEME
TIME_SYSTEM    = UTC
MEAN_ELEMENT_THEORY = SGP/SGP4

EPOCH          = 2026-01-19T14:56:00.080160
MEAN_MOTION    = 14.16591264
ECCENTRICITY   = .00089023
INCLINATION    = 71.0009
RA_OF_ASC_NODE = 243.8519
ARG_OF_PERICENTER = 317.5181
MEAN_ANOMALY   = 73.1449

EPHEMERIS_TYPE = 0
CLASSIFICATION_TYPE = U
NORAD_CAT_ID   = 16182
ELEMENT_SET_NO = 999
REV_AT_EPOCH   = 8028
BSTAR          = -.90605974E-4
MEAN_MOTION_DOT = -.229E-5
MEAN_MOTION_DDOT = 0

CCSDS_OMM_VERS = 2.0
CREATION_DATE  = 
ORIGINATOR     = 

OBJECT_NAME    = SL-14 R/B
OBJECT_ID      = 1986-006B
CENTER_NAME    = EARTH
REF_FRAME      = TEME
TIME_SYSTEM    = UTC
MEAN_ELEMENT_THEORY = SGP/SGP4

EPOCH          = 2026-01-19T12:36:37.812096
MEAN_MOTION    = 14.86727406
ECCENTRICITY   = .00782372
INCLINATION    = 82.5289
RA_OF_ASC_NODE = 306.0024
ARG_OF_PERICENTER = 75.9327
MEAN_ANOMALY   = 285.0570

EPHEMERIS_TYPE = 0
CLASSIFICATION_TYPE = U
NORAD_CAT_ID   = 16496
ELEMENT_SET_NO = 999
REV_AT_EPOCH   = 14190
BSTAR          = .73683822E-4
MEAN_MOTION_DOT = .721E-5
MEAN_MOTION_DDOT = 0

CCSDS_OMM_VERS = 2.0
CREATION_DATE  = 
ORIGINATOR     = 

OBJECT_NAME    = COSMOS 1743
OBJECT_ID      = 1986-034A
CENTER_NAME    = EARTH
REF_FRAME      = TEME
TIME_SYSTEM    = UTC
MEAN_ELEMENT_THEORY = SGP/SGP4

EPOCH          = 2026-01-19T08:07:54.663168
MEAN_MOTION    = 15.54689793
ECCENTRICITY   = .00054132
INCLINATION    = 82.5365
RA_OF_ASC_NODE = 125.4676
ARG_OF_PERICENTER = 113.8534
MEAN_ANOMALY   = 246.3288

EPHEMERIS_TYPE = 0
CLASSIFICATION_TYPE = U
NORAD_CAT_ID   = 16719
ELEMENT_SET_NO = 999
REV_AT_EPOCH   = 17257
BSTAR          = .55883723E-3
MEAN_MOTION_DOT = .37199E-3
MEAN_MOTION_DDOT = 0

