SL-3 R/B                
1 13403U 82079B   26019.63473732  .00005187  00000+0  21084-3 0  9998
2 13403  81.1450 250.9779 0024983 334.7567  25.2442 15.24073947370227
SL-14 R/B               
1 13553U 82092B   26019.50831936  .00000554  00000+0  59480-4 0  9994
2 13553  82.5675 187.3874 0021811 103.4960 314.2161 14.86598568321628
SL-3 R/B                
1 13819U 83010B   26019.55394089  .00011644  00000+0  24861-3 0  9994
2 13819  81.1022  62.4190 0016480 213.8792 146.1400 15.44579912350350
SL-3 R/B                
1 14208U 83075B   26019.62307654  .00010950  00000+0  30181-3 0  9999
2 14208  97.6113  22.4055 0023965  48.7990 311.5315 15.37016339322615
COSMOS 1536             
1 14699U 84013A   26019.45889506  .00007488  00000+0  31552-3 0  9993
2 14699  82.5469 156.7436 0015769  95.8792 264.4243 15.23057475265125
SL-14 R/B               
1 14820U 84027B   26019.46861829  .00000482  00000+0  52268-4 0  9998
2 14820  82.5429 291.1793 0019050 132.9800 227.3018 14.85918931240320
SL-8 R/B                
1 15483U 85006B   26019.40639737  .00000315  00000+0  11325-3 0  9990
2 15483  74.0468 351.8288 0019794 277.9991 201.2694 14.37748897146947
SL-12 R/B(2)            
1 15772U 85042D   26019.66584627  .00000136  00000+0  82789-4 0  9990
2 15772  71.1066 191.2973 0036162 205.3475 230.6952 14.21963511107425
SL-14 R/B               
1 15945U 85069B   26019.60297561  .00000446  00000+0  47704-4 0  9995
2 15945  82.5249  71.1037 0018722 359.9275   0.1935 14.86368630165549
SL-16 R/B               
1 16182U 85097B   26019.62222315 -.00000229  00000+0 -90606-4 0  9997
2 16182  71.0009 243.8519 0008902 317.5181  73.1449 14.16591264 80289
SL-14 R/B               
1 16496U 86006B   26019.52543764  .00000721  00000+0  73684-4 0  9991
2 16496  82.5289 306.0024 0078237  75.9327 285.0570 14.86727406141904
COSMOS 1743             
1 16719U 86034A   26019.33882712  .00037199  00000+0  55884-3 0  9998
2 16719  82.5365 125.4676 0005413 113.8534 246.3288 15.54689793172576
